[{"OBJECT_NAME":"SEEDS II (CO-66)","OBJECT_ID":"2008-021J","EPOCH":"2026-03-09T22:06:22.421376","MEAN_MOTION":15.29097236,"ECCENTRICITY":0.00014475,"INCLINATION":97.7519,"RA_OF_ASC_NODE":62.3611,"ARG_OF_PERICENTER":359.2618,"MEAN_ANOMALY":0.8619,"EPHEMERIS_TYPE":0,"CLASSIFICATION_TYPE":"U","NORAD_CAT_ID":32791,"ELEMENT_SET_NO":999,"REV_AT_EPOCH":97210,"BSTAR":0.00084213052,"MEAN_MOTION_DOT":0.00023758,"MEAN_MOTION_DDOT":0},{"OBJECT_NAME":"STARLINK-35533","OBJECT_ID":"2025-259H","EPOCH":"2026-03-08T23:24:31.730400","MEAN_MOTION":15.27541105,"ECCENTRICITY":0.00030097,"INCLINATION":43.0059,"RA_OF_ASC_NODE":278.2403,"ARG_OF_PERICENTER":262.8657,"MEAN_ANOMALY":97.1852,"EPHEMERIS_TYPE":0,"CLASSIFICATION_TYPE":"U","NORAD_CAT_ID":66429,"ELEMENT_SET_NO":999,"REV_AT_EPOCH":1938,"BSTAR":0.0015615382,"MEAN_MOTION_DOT":0.0004291,"MEAN_MOTION_DDOT":0}]
